$$SOE
2459580.500000000, A.D. 2022-Jan-01 00:00:00.0000, -6.772125038126262E+07, -3.524104932316073E+08, 1.108019624702688E+07,
2459587.500000000, A.D. 2022-Jan-08 00:00:00.0000, -5.645691926176032E+07, -3.513852110646609E+08, 1.113493917823146E+07,
2459594.500000000, A.D. 2022-Jan-15 00:00:00.0000, -4.513192224148227E+07, -3.499820499190952E+08, 1.117770650458135E+07,
2459601.500000000, A.D. 2022-Jan-22 00:00:00.0000, -3.375718357276450E+07, -3.481928168133966E+08, 1.120814185510689E+07,
2459608.500000000, A.D. 2022-Jan-29 00:00:00.0000, -2.234426462849889E+07, -3.460093499497467E+08, 1.122588505923839E+07,
2459615.500000000, A.D. 2022-Feb-05 00:00:00.0000, -1.090540271167468E+07, -3.434235480008768E+08, 1.123057294974422E+07,
2459622.500000000, A.D. 2022-Feb-12 00:00:00.0000, 5.464512860562447E+05, -3.404274047243017E+08, 1.122184001244403E+07,
2459629.500000000, A.D. 2022-Feb-19 00:00:00.0000, 1.199759526851966E+07, -3.370130470006662E+08, 1.119931921471661E+07,
2459636.500000000, A.D. 2022-Feb-26 00:00:00.0000, 2.343353733129651E+07, -3.331727775159577E+08, 1.116264309236519E+07,
2459643.500000000, A.D. 2022-Mar-05 00:00:00.0000, 3.483895668588387E+07, -3.288991232308316E+08, 1.111144505033490E+07,
2459650.500000000, A.D. 2022-Mar-12 00:00:00.0000, 4.619766477656895E+07, -3.241848902523382E+08, 1.104536087604499E+07,
2459657.500000000, A.D. 2022-Mar-19 00:00:00.0000, 5.749256720854012E+07, -3.190232256378540E+08, 1.096403048590565E+07,
2459664.500000000, A.D. 2022-Mar-26 00:00:00.0000, 6.870562718715970E+07, -3.134076867028337E+08, 1.086709991762388E+07,
2459671.500000000, A.D. 2022-Apr-02 00:00:00.0000, 7.981783134793314E+07, -3.073323184695120E+08, 1.075422357656825E+07,
2459678.500000000, A.D. 2022-Apr-09 00:00:00.0000, 9.080915920120834E+07, -3.007917398102255E+08, 1.062506674543792E+07,
2459685.500000000, A.D. 2022-Apr-16 00:00:00.0000, 1.016585576723148E+08, -2.937812381351250E+08, 1.047930840792820E+07,
2459692.500000000, A.D. 2022-Apr-23 00:00:00.0000, 1.123439207793511E+08, -2.862968719741967E+08, 1.031664461488760E+07,
2459699.500000000, A.D. 2022-Apr-30 00:00:00.0000, 1.228420740837514E+08, -2.783355840263759E+08, 1.013679240272775E+07,
2459706.500000000, A.D. 2022-May-07 00:00:00.0000, 1.331287686856092E+08, -2.698953268238469E+08, 9.939493840709522E+06,
2459713.500000000, A.D. 2022-May-14 00:00:00.0000, 1.431786880728409E+08, -2.609751979447253E+08, 9.724520341373518E+06,
2459720.500000000, A.D. 2022-May-21 00:00:00.0000, 1.529654679252917E+08, -2.515755837230637E+08, 9.491677487652302E+06,
2459727.500000000, A.D. 2022-May-28 00:00:00.0000, 1.624617307344397E+08, -2.416983118007405E+08, 9.240810338155225E+06,
2459734.500000000, A.D. 2022-Jun-04 00:00:00.0000, 1.716391380327221E+08, -2.313468118409739E+08, 8.971809146331012E+06,
2459741.500000000, A.D. 2022-Jun-11 00:00:00.0000, 1.804684630126328E+08, -2.205262829553303E+08, 8.684615455491707E+06,
2459748.500000000, A.D. 2022-Jun-18 00:00:00.0000, 1.889196862513320E+08, -2.092438658424415E+08, 8.379228525330350E+06,
2459755.500000000, A.D. 2022-Jun-25 00:00:00.0000, 1.969621171969279E+08, -1.975088170530890E+08, 8.055712019850232E+06,
2459762.500000000, A.D. 2022-Jul-02 00:00:00.0000, 2.045645440155068E+08, -1.853326821290009E+08, 7.714200848128580E+06,
2459769.500000000, A.D. 2022-Jul-09 00:00:00.0000, 2.116954143541512E+08, -1.727294633823704E+08, 7.354908019621402E+06,
2459776.500000000, A.D. 2022-Jul-16 00:00:00.0000, 2.183230486479488E+08, -1.597157764341935E+08, 6.978131464247368E+06,
2459783.500000000, A.D. 2022-Jul-23 00:00:00.0000, 2.244158847547200E+08, -1.463109899055932E+08, 6.584260851775922E+06,
2459790.500000000, A.D. 2022-Jul-30 00:00:00.0000, 2.299427540546737E+08, -1.325373454137990E+08, 6.173783923849784E+06,
2459797.500000000, A.D. 2022-Aug-06 00:00:00.0000, 2.348731915155914E+08, -1.184200504817563E+08, 5.747291829920456E+06,
2459804.500000000, A.D. 2022-Aug-13 00:00:00.0000, 2.391777764317481E+08, -1.039873345383961E+08, 5.305483515958775E+06,
2459811.500000000, A.D. 2022-Aug-20 00:00:00.0000, 2.428284982267490E+08, -8.927046139907631E+07, 4.849169003408439E+06,
2459818.500000000, A.D. 2022-Aug-27 00:00:00.0000, 2.457991416326714E+08, -7.430369214630137E+07, 4.379271223523628E+06,
2459825.500000000, A.D. 2022-Sep-03 00:00:00.0000, 2.480656839645289E+08, -5.912419244622994E+07, 3.896826115478709E+06,
2459832.500000000, A.D. 2022-Sep-10 00:00:00.0000, 2.496066953289049E+08, -4.377187940484576E+07, 3.402980747297412E+06,
2459839.500000000, A.D. 2022-Sep-17 00:00:00.0000, 2.504037310070389E+08, -2.828920478147089E+07, 2.898989264934478E+06,
2459846.500000000, A.D. 2022-Sep-24 00:00:00.0000, 2.504417040834644E+08, -1.272087357424044E+07, 2.386206529285127E+06,
2459853.500000000, A.D. 2022-Oct-01 00:00:00.0000, 2.497092258592818E+08, 2.886500498349541E+06, 1.866079364656049E+06,
2459860.500000000, A.D. 2022-Oct-08 00:00:00.0000, 2.481989016668580E+08, 1.848479884145519E+07, 1.340135463643574E+06,
2459867.500000000, A.D. 2022-Oct-15 00:00:00.0000, 2.459075690342698E+08, 3.402485516044358E+07, 8.099702788210195E+05,
2459874.500000000, A.D. 2022-Oct-22 00:00:00.0000, 2.428364653620779E+08, 4.945695426153323E+07, 2.772322176479027E+05,
2459881.500000000, A.D. 2022-Oct-29 00:00:00.0000, 2.389913190865279E+08, 6.473135734434560E+07, -2.563939551483206E+05,
2459888.500000000, A.D. 2022-Nov-05 00:00:00.0000, 2.343823606688845E+08, 7.979884206647000E+07, -7.892050475990884E+05,
2459895.500000000, A.D. 2022-Nov-12 00:00:00.0000, 2.290242489696059E+08, 9.461124300080246E+07, -1.319497923722014E+06,
2459902.500000000, A.D. 2022-Nov-19 00:00:00.0000, 2.229359133549950E+08, 1.091219755560034E+08, -1.845588017774373E+06,
2459909.500000000, A.D. 2022-Nov-26 00:00:00.0000, 2.161403164075266E+08, 1.232865275739090E+08, -2.365827393380493E+06,
2459916.500000000, A.D. 2022-Dec-03 00:00:00.0000, 2.086641452982942E+08, 1.370629046695893E+08, -2.878621843137503E+06,
2459923.500000000, A.D. 2022-Dec-10 00:00:00.0000, 2.005374425433961E+08, 1.504120176373872E+08, -3.382446561912529E+06,
2459930.500000000, A.D. 2022-Dec-17 00:00:00.0000, 1.917931889392653E+08, 1.632980030076512E+08, -3.875860004394069E+06,
2459937.500000000, A.D. 2022-Dec-24 00:00:00.0000, 1.824668528426400E+08, 1.756884709533942E+08, -4.357515642179698E+06,
2459944.500000000, A.D. 2022-Dec-31 00:00:00.0000, 1.725959206526735E+08, 1.875546781798015E+08, -4.826171448526993E+06,
2459951.500000000, A.D. 2023-Jan-07 00:00:00.0000, 1.622194227559141E+08, 1.988716274006264E+08, -5.280696955325857E+06,
2459958.500000000, A.D. 2023-Jan-14 00:00:00.0000, 1.513774660104320E+08, 2.096180973117221E+08, -5.720077672094420E+06,
2459965.500000000, A.D. 2023-Jan-21 00:00:00.0000, 1.401107835395463E+08, 2.197766056532671E+08, -6.143417162089556E+06,
2459972.500000000, A.D. 2023-Jan-28 00:00:00.0000, 1.284603149736474E+08, 2.293333126878102E+08, -6.549937302225769E+06,
2459979.500000000, A.D. 2023-Feb-04 00:00:00.0000, 1.164668241981338E+08, 2.382778767510409E+08, -6.938976690576747E+06,
2459986.500000000, A.D. 2023-Feb-11 00:00:00.0000, 1.041705578463469E+08, 2.466032708878975E+08, -7.309987315686405E+06,
2459993.500000000, A.D. 2023-Feb-18 00:00:00.0000, 9.161094741336451E+07, 2.543055690252720E+08, -7.662529831015095E+06,
2460000.500000000, A.D. 2023-Feb-25 00:00:00.0000, 7.882635630878590E+07, 2.613837104268015E+08, -7.996267757336974E+06,
2460007.500000000, A.D. 2023-Mar-04 00:00:00.0000, 6.585387140211137E+07, 2.678392506617125E+08, -8.310960896906421E+06,
2460014.500000000, A.D. 2023-Mar-11 00:00:00.0000, 5.272913725235409E+07, 2.736761063804452E+08, -8.606458218290910E+06,
2460021.500000000, A.D. 2023-Mar-18 00:00:00.0000, 3.948623025905265E+07, 2.789003000840111E+08, -8.882690448910549E+06,
2460028.500000000, A.D. 2023-Mar-25 00:00:00.0000, 2.615756944544809E+07, 2.835197099743514E+08, -9.139662593168691E+06,
2460035.500000000, A.D. 2023-Apr-01 00:00:00.0000, 1.277386038294798E+07, 2.875438293499373E+08, -9.377446543928638E+06,
2460042.500000000, A.D. 2023-Apr-08 00:00:00.0000, -6.359324553459282E+05, 2.909835398709604E+08, -9.596173762169510E+06,
2460049.500000000, A.D. 2023-Apr-15 00:00:00.0000, -1.404459131757540E+07, 2.938508997948663E+08, -9.796028006015897E+06,
2460056.500000000, A.D. 2023-Apr-22 00:00:00.0000, -2.742663088168663E+07, 2.961589455334607E+08, -9.977238601188228E+06,
2460063.500000000, A.D. 2023-Apr-29 00:00:00.0000, -4.075826498498979E+07, 2.979215095402521E+08, -1.014007437557714E+07,
2460070.500000000, A.D. 2023-May-06 00:00:00.0000, -5.401735947644559E+07, 2.991530565069622E+08, -1.028483798728108E+07,
2460077.500000000, A.D. 2023-May-13 00:00:00.0000, -6.718337517216207E+07, 2.998685367211645E+08, -1.041186064477788E+07,
2460084.500000000, A.D. 2023-May-20 00:00:00.0000, -8.023730333082123E+07, 3.000832555182342E+08, -1.052149728186154E+07,
2460091.500000000, A.D. 2023-May-27 00:00:00.0000, -9.316159574797791E+07, 2.998127579926153E+08, -1.061412219858913E+07,
2460098.500000000, A.D. 2023-Jun-03 00:00:00.0000, -1.059400913602028E+08, 2.990727280311390E+08, -1.069012515490344E+07,
2460105.500000000, A.D. 2023-Jun-10 00:00:00.0000, -1.185579409644875E+08, 2.978789005946879E+08, -1.074990789820480E+07,
2460112.500000000, A.D. 2023-Jun-17 00:00:00.0000, -1.310015313031619E+08, 2.962469860809262E+08, -1.079388111212943E+07,
2460119.500000000, A.D. 2023-Jun-24 00:00:00.0000, -1.432584092756187E+08, 2.941926057079673E+08, -1.082246178317985E+07,
2460126.500000000, A.D. 2023-Jul-01 00:00:00.0000, -1.553172068801359E+08, 2.917312376529257E+08, -1.083607091157256E+07,
2460133.500000000, A.D. 2023-Jul-08 00:00:00.0000, -1.671675692224718E+08, 2.888781737198970E+08, -1.083513131695563E+07,
2460140.500000000, A.D. 2023-Jul-15 00:00:00.0000, -1.788000873576598E+08, 2.856484827176862E+08, -1.082006562505196E+07,
2460147.500000000, A.D. 2023-Jul-22 00:00:00.0000, -1.902062327904254E+08, 2.820569785756454E+08, -1.079129481332189E+07,
$$EOE